SHIYAN-24C 01           
1 58650U 23206A   26068.89348774  .00002076  00000+0  18089-3 0  9992
2 58650  97.3976  41.7846 0003675 132.3262 227.8273 14.97903598120444
STARLINK-33863          
1 63864U 25094A   26068.85933094  .00011592  00000+0  97754-3 0  9992
2 63864  70.0016 234.2309 0003162 273.2150  86.8647 14.98336062 47224
